COSMOS 2251 DEB         
1 34343U 93036PR  26063.05171300  .00009975  00000+0  16200-2 0  9992
2 34343  74.0185 291.6778 0022762 188.9488 322.4984 14.71056032899253
COSMOS 2251 DEB         
1 34344U 93036PS  26063.12872058  .00003939  00000+0  17516-2 0  9994
2 34344  73.9793 324.9678 0154539 131.7881 351.5632 14.17049390872496
COSMOS 2251 DEB         
1 34346U 93036PU  26062.73619838  .00001362  00000+0  78111-3 0  9994
2 34346  73.9942 171.6599 0208764 331.7439 179.2920 14.00012990865433
COSMOS 2251 DEB         
1 34383U 93036PY  26063.14221235  .00107764  00000+0  47051-2 0  9992
2 34383  74.0255 128.3294 0013088 293.2369  89.7006 15.21526220903467
COSMOS 2251 DEB         
1 34387U 93036QC  26063.06208631  .00001290  00000+0  38157-3 0  9997
2 34387  74.0390  60.7104 0036842 141.2701 276.3693 14.44050798893555
COSMOS 2251 DEB         
1 34388U 93036QD  26063.01721090  .00003594  00000+0  93598-3 0  9991
2 34388  74.0373  70.5998 0010050 105.5477 285.8417 14.49895443893337
COSMOS 2251 DEB         
1 34389U 93036QE  26063.12152280  .00001381  00000+0  42867-3 0  9998
2 34389  74.0165  98.8826 0029838 197.9504 223.4316 14.41776742891853
COSMOS 2251 DEB         
1 34396U 93036QM  26063.17688392  .00019151  00000+0  27159-2 0  9999
2 34396  74.0301 324.6452 0004849 328.7788 187.5616 14.76956174895473
COSMOS 2251 DEB         
1 34409U 93036RA  26062.93566177  .00001409  00000+0  29818-3 0  9995
2 34409  74.0637 152.6055 0080671 207.7749 277.0801 14.58240735903760
COSMOS 2251 DEB         
1 34410U 93036RB  26063.14389632  .00109349  00000+0  37026-2 0  9991
2 34410  73.7306  86.9253 0026199 276.3717  83.4500 15.29743675910147
COSMOS 2251 DEB         
1 34412U 93036RD  26062.69505242  .00006093  00000+0  13126-2 0  9996
2 34412  73.9488 172.2209 0188570 250.0467 108.0295 14.48130676888224
COSMOS 2251 DEB         
1 34413U 93036RE  26063.15062854  .00003209  00000+0  12052-2 0  9999
2 34413  74.0294 116.9432 0089901 178.0013 213.6393 14.29764543882949
COSMOS 2251 DEB         
1 34420U 93036RM  26062.82937112  .00001408  00000+0  22904-3 0  9995
2 34420  74.0333 307.0828 0104406  46.5457  72.2873 14.68515414909601
COSMOS 2251 DEB         
1 34425U 93036RS  26062.98532406  .00003336  00000+0  65807-3 0  9995
2 34425  74.0159 258.7147 0025544   0.4775 359.6411 14.62682074899288
COSMOS 2251 DEB         
1 34430U 93036RX  26063.19344562  .00001747  00000+0  55199-3 0  9996
2 34430  74.0518 153.0476 0061085 205.5598 154.2535 14.39898966891276
COSMOS 2251 DEB         
1 34431U 93036RY  26062.28970349  .00002318  00000+0  90251-3 0  9997
2 34431  74.0760  29.3572 0067569 352.2900   7.7203 14.29074461882930
