[{"OBJECT_NAME":"COSMOS 2251 DEB","OBJECT_ID":"1993-036PR","EPOCH":"2026-03-04T01:14:28.003200","MEAN_MOTION":14.71056032,"ECCENTRICITY":0.0022762,"INCLINATION":74.0185,"RA_OF_ASC_NODE":291.6778,"ARG_OF_PERICENTER":188.9488,"MEAN_ANOMALY":322.4984,"EPHEMERIS_TYPE":0,"CLASSIFICATION_TYPE":"U","NORAD_CAT_ID":34343,"ELEMENT_SET_NO":999,"REV_AT_EPOCH":89925,"BSTAR":0.00162,"MEAN_MOTION_DOT":9.975e-5,"MEAN_MOTION_DDOT":0},{"OBJECT_NAME":"COSMOS 2251 DEB","OBJECT_ID":"1993-036PS","EPOCH":"2026-03-04T03:05:21.458112","MEAN_MOTION":14.1704939,"ECCENTRICITY":0.0154539,"INCLINATION":73.9793,"RA_OF_ASC_NODE":324.9678,"ARG_OF_PERICENTER":131.7881,"MEAN_ANOMALY":351.5632,"EPHEMERIS_TYPE":0,"CLASSIFICATION_TYPE":"U","NORAD_CAT_ID":34344,"ELEMENT_SET_NO":999,"REV_AT_EPOCH":87249,"BSTAR":0.0017516,"MEAN_MOTION_DOT":3.939e-5,"MEAN_MOTION_DDOT":0},{"OBJECT_NAME":"COSMOS 2251 DEB","OBJECT_ID":"1993-036PU","EPOCH":"2026-03-03T17:40:07.540032","MEAN_MOTION":14.0001299,"ECCENTRICITY":0.02087649,"INCLINATION":73.9942,"RA_OF_ASC_NODE":171.6599,"ARG_OF_PERICENTER":331.7439,"MEAN_ANOMALY":179.292,"EPHEMERIS_TYPE":0,"CLASSIFICATION_TYPE":"U","NORAD_CAT_ID":34346,"ELEMENT_SET_NO":999,"REV_AT_EPOCH":86543,"BSTAR":0.00078110542,"MEAN_MOTION_DOT":1.362e-5,"MEAN_MOTION_DDOT":0},{"OBJECT_NAME":"COSMOS 2251 DEB","OBJECT_ID":"1993-036PY","EPOCH":"2026-03-04T03:24:47.147040","MEAN_MOTION":15.2152622,"ECCENTRICITY":0.0013088,"INCLINATION":74.0255,"RA_OF_ASC_NODE":128.3294,"ARG_OF_PERICENTER":293.2369,"MEAN_ANOMALY":89.7006,"EPHEMERIS_TYPE":0,"CLASSIFICATION_TYPE":"U","NORAD_CAT_ID":34383,"ELEMENT_SET_NO":999,"REV_AT_EPOCH":90346,"BSTAR":0.0047051,"MEAN_MOTION_DOT":0.00107764,"MEAN_MOTION_DDOT":0},{"OBJECT_NAME":"COSMOS 2251 DEB","OBJECT_ID":"1993-036QC","EPOCH":"2026-03-04T01:29:24.257184","MEAN_MOTION":14.44050798,"ECCENTRICITY":0.0036842,"INCLINATION":74.039,"RA_OF_ASC_NODE":60.7104,"ARG_OF_PERICENTER":141.2701,"MEAN_ANOMALY":276.3693,"EPHEMERIS_TYPE":0,"CLASSIFICATION_TYPE":"U","NORAD_CAT_ID":34387,"ELEMENT_SET_NO":999,"REV_AT_EPOCH":89355,"BSTAR":0.00038157,"MEAN_MOTION_DOT":1.29e-5,"MEAN_MOTION_DDOT":0},{"OBJECT_NAME":"COSMOS 2251 DEB","OBJECT_ID":"1993-036QD","EPOCH":"2026-03-04T00:24:47.021760","MEAN_MOTION":14.49895443,"ECCENTRICITY":0.001005,"INCLINATION":74.0373,"RA_OF_ASC_NODE":70.5998,"ARG_OF_PERICENTER":105.5477,"MEAN_ANOMALY":285.8417,"EPHEMERIS_TYPE":0,"CLASSIFICATION_TYPE":"U","NORAD_CAT_ID":34388,"ELEMENT_SET_NO":999,"REV_AT_EPOCH":89333,"BSTAR":0.00093598,"MEAN_MOTION_DOT":3.594e-5,"MEAN_MOTION_DDOT":0},{"OBJECT_NAME":"COSMOS 2251 DEB","OBJECT_ID":"1993-036QE","EPOCH":"2026-03-04T02:54:59.569920","MEAN_MOTION":14.41776742,"ECCENTRICITY":0.0029838,"INCLINATION":74.0165,"RA_OF_ASC_NODE":98.8826,"ARG_OF_PERICENTER":197.9504,"MEAN_ANOMALY":223.4316,"EPHEMERIS_TYPE":0,"CLASSIFICATION_TYPE":"U","NORAD_CAT_ID":34389,"ELEMENT_SET_NO":999,"REV_AT_EPOCH":89185,"BSTAR":0.00042867,"MEAN_MOTION_DOT":1.381e-5,"MEAN_MOTION_DDOT":0},{"OBJECT_NAME":"COSMOS 2251 DEB","OBJECT_ID":"1993-036QM","EPOCH":"2026-03-04T04:14:42.770688","MEAN_MOTION":14.76956174,"ECCENTRICITY":0.0004849,"INCLINATION":74.0301,"RA_OF_ASC_NODE":324.6452,"ARG_OF_PERICENTER":328.7788,"MEAN_ANOMALY":187.5616,"EPHEMERIS_TYPE":0,"CLASSIFICATION_TYPE":"U","NORAD_CAT_ID":34396,"ELEMENT_SET_NO":999,"REV_AT_EPOCH":89547,"BSTAR":0.0027159,"MEAN_MOTION_DOT":0.00019151,"MEAN_MOTION_DDOT":0},{"OBJECT_NAME":"COSMOS 2251 DEB","OBJECT_ID":"1993-036RA","EPOCH":"2026-03-03T22:27:21.176928","MEAN_MOTION":14.58240735,"ECCENTRICITY":0.0080671,"INCLINATION":74.0637,"RA_OF_ASC_NODE":152.6055,"ARG_OF_PERICENTER":207.7749,"MEAN_ANOMALY":277.0801,"EPHEMERIS_TYPE":0,"CLASSIFICATION_TYPE":"U","NORAD_CAT_ID":34409,"ELEMENT_SET_NO":999,"REV_AT_EPOCH":90376,"BSTAR":0.00029818,"MEAN_MOTION_DOT":1.409e-5,"MEAN_MOTION_DDOT":0},{"OBJECT_NAME":"COSMOS 2251 DEB","OBJECT_ID":"1993-036RB","EPOCH":"2026-03-04T03:27:12.642048","MEAN_MOTION":15.29743675,"ECCENTRICITY":0.0026199,"INCLINATION":73.7306,"RA_OF_ASC_NODE":86.9253,"ARG_OF_PERICENTER":276.3717,"MEAN_ANOMALY":83.45,"EPHEMERIS_TYPE":0,"CLASSIFICATION_TYPE":"U","NORAD_CAT_ID":34410,"ELEMENT_SET_NO":999,"REV_AT_EPOCH":91014,"BSTAR":0.0037026,"MEAN_MOTION_DOT":0.00109349,"MEAN_MOTION_DDOT":0},{"OBJECT_NAME":"COSMOS 2251 DEB","OBJECT_ID":"1993-036RD","EPOCH":"2026-03-03T16:40:52.529088","MEAN_MOTION":14.48130676,"ECCENTRICITY":0.01885703,"INCLINATION":73.9488,"RA_OF_ASC_NODE":172.2209,"ARG_OF_PERICENTER":250.0467,"MEAN_ANOMALY":108.0295,"EPHEMERIS_TYPE":0,"CLASSIFICATION_TYPE":"U","NORAD_CAT_ID":34412,"ELEMENT_SET_NO":999,"REV_AT_EPOCH":88822,"BSTAR":0.0013125716,"MEAN_MOTION_DOT":6.093e-5,"MEAN_MOTION_DDOT":0},{"OBJECT_NAME":"COSMOS 2251 DEB","OBJECT_ID":"1993-036RE","EPOCH":"2026-03-04T03:36:54.305856","MEAN_MOTION":14.29764543,"ECCENTRICITY":0.0089901,"INCLINATION":74.0294,"RA_OF_ASC_NODE":116.9432,"ARG_OF_PERICENTER":178.0013,"MEAN_ANOMALY":213.6393,"EPHEMERIS_TYPE":0,"CLASSIFICATION_TYPE":"U","NORAD_CAT_ID":34413,"ELEMENT_SET_NO":999,"REV_AT_EPOCH":88294,"BSTAR":0.0012052,"MEAN_MOTION_DOT":3.209e-5,"MEAN_MOTION_DDOT":0},{"OBJECT_NAME":"COSMOS 2251 DEB","OBJECT_ID":"1993-036RM","EPOCH":"2026-03-03T19:54:17.664768","MEAN_MOTION":14.68515414,"ECCENTRICITY":0.0104406,"INCLINATION":74.0333,"RA_OF_ASC_NODE":307.0828,"ARG_OF_PERICENTER":46.5457,"MEAN_ANOMALY":72.2873,"EPHEMERIS_TYPE":0,"CLASSIFICATION_TYPE":"U","NORAD_CAT_ID":34420,"ELEMENT_SET_NO":999,"REV_AT_EPOCH":90960,"BSTAR":0.00022904,"MEAN_MOTION_DOT":1.408e-5,"MEAN_MOTION_DDOT":0},{"OBJECT_NAME":"COSMOS 2251 DEB","OBJECT_ID":"1993-036RS","EPOCH":"2026-03-03T23:38:51.998784","MEAN_MOTION":14.62682074,"ECCENTRICITY":0.0025544,"INCLINATION":74.0159,"RA_OF_ASC_NODE":258.7147,"ARG_OF_PERICENTER":0.4775,"MEAN_ANOMALY":359.6411,"EPHEMERIS_TYPE":0,"CLASSIFICATION_TYPE":"U","NORAD_CAT_ID":34425,"ELEMENT_SET_NO":999,"REV_AT_EPOCH":89928,"BSTAR":0.00065807,"MEAN_MOTION_DOT":3.336e-5,"MEAN_MOTION_DDOT":0},{"OBJECT_NAME":"COSMOS 2251 DEB","OBJECT_ID":"1993-036RX","EPOCH":"2026-03-04T04:38:33.701568","MEAN_MOTION":14.39898966,"ECCENTRICITY":0.0061085,"INCLINATION":74.0518,"RA_OF_ASC_NODE":153.0476,"ARG_OF_PERICENTER":205.5598,"MEAN_ANOMALY":154.2535,"EPHEMERIS_TYPE":0,"CLASSIFICATION_TYPE":"U","NORAD_CAT_ID":34430,"ELEMENT_SET_NO":999,"REV_AT_EPOCH":89127,"BSTAR":0.00055199,"MEAN_MOTION_DOT":1.747e-5,"MEAN_MOTION_DDOT":0},{"OBJECT_NAME":"COSMOS 2251 DEB","OBJECT_ID":"1993-036RY","EPOCH":"2026-03-03T06:57:10.381536","MEAN_MOTION":14.29074461,"ECCENTRICITY":0.00675699,"INCLINATION":74.076,"RA_OF_ASC_NODE":29.3572,"ARG_OF_PERICENTER":352.29,"MEAN_ANOMALY":7.7203,"EPHEMERIS_TYPE":0,"CLASSIFICATION_TYPE":"U","NORAD_CAT_ID":34431,"ELEMENT_SET_NO":999,"REV_AT_EPOCH":88293,"BSTAR":0.00090251182,"MEAN_MOTION_DOT":2.318e-5,"MEAN_MOTION_DDOT":0}]
